GSAT0101 (GALILEO-PFM)  
1 37846U 11060A   26132.06679816 -.00000059  00000+0  00000+0 0  9996
2 37846  57.0066 342.7409 0003801  36.9967 323.0721  1.70475700 90508
GSAT0102 (GALILEO-FM2)  
1 37847U 11060B   26132.28960389 -.00000059  00000+0  00000+0 0  9999
2 37847  57.0060 342.7355 0004102   9.0913 173.3074  1.70475944 90518
GSAT0103 (GALILEO-FM3)  
1 38857U 12055A   26132.69380507  .00000058  00000+0  00000+0 0  9997
2 38857  55.7853 102.5186 0005712 298.0143  61.9039  1.70473386 84404
GSAT0201 (GALILEO 5)    
1 40128U 14050A   26132.84386089 -.00000049  00000+0  00000+0 0  9997
2 40128  48.9144 274.8842 1669174 178.0124 182.7580  1.85519902 77666
GSAT0202 (GALILEO 6)    
1 40129U 14050B   26133.09952230 -.00000049  00000+0  00000+0 0  9993
2 40129  48.9319 273.9585 1670313 178.7512 181.7383  1.85520547 79838
GSAT0203 (GALILEO 7)    
1 40544U 15017A   26131.25816466 -.00000060  00000+0  00000+0 0  9997
2 40544  56.7986 342.6025 0001988 312.1423  47.8822  1.70476028 68576
GSAT0204 (GALILEO 8)    
1 40545U 15017B   26130.92725694 -.00000061  00000+0  00000+0 0  9994
2 40545  56.8051 342.6300 0002020 282.0074  78.0109  1.70475668 31610
GSAT0205 (GALILEO 9)    
1 40889U 15045A   26115.63255192 -.00000038  00000+0  00000+0 0  9992
2 40889  54.9613 223.1764 0005159 266.9978  92.9342  1.67410754 66085
GSAT0206 (GALILEO 10)   
1 40890U 15045B   26130.91590674  .00000006  00000+0  00000+0 0  9993
2 40890  54.9559 222.6337 0001772  27.2114 332.8341  1.70474023 66407
GSAT0209 (GALILEO 12)   
1 41174U 15079A   26131.08387511  .00000059  00000+0  00000+0 0  9997
2 41174  55.8056 102.2786 0005648 331.9247  28.0249  1.70473999 64145
GSAT0208 (GALILEO 11)   
1 41175U 15079B   26132.47731976  .00000058  00000+0  00000+0 0  9999
2 41175  55.8051 102.2375 0005004 333.6656  26.2856  1.70473864 64587
GSAT0211 (GALILEO 14)   
1 41549U 16030A   26130.25506024  .00000006  00000+0  00000+0 0  9993
2 41549  55.1062 222.7382 0002510 345.0589  14.9704  1.70474161 62028
GSAT0210 (GALILEO 13)   
1 41550U 16030B   26132.27208294  .00000007  00000+0  00000+0 0  9998
2 41550  55.1045 222.6807 0002371 211.9742 148.0484  1.70474187 62054
GSAT0207 (GALILEO 15)   
1 41859U 16069A   26133.13686639  .00000055  00000+0  00000+0 0  9994
2 41859  55.4775 102.0552 0005821 321.4493  38.4825  1.70473822 58804
GSAT0212 (GALILEO 16)   
1 41860U 16069B   26131.81717310  .00000058  00000+0  00000+0 0  9993
2 41860  55.4744 102.0869 0004742 345.0422  14.9226  1.70474050 59032
GSAT0213 (GALILEO 17)   
1 41861U 16069C   26131.01131973  .00000058  00000+0  00000+0 0  9991
2 41861  55.4763 102.1170 0005717 305.0974  54.8291  1.70474511 58880
GSAT0214 (GALILEO 18)   
1 41862U 16069D   26132.33062559  .00000058  00000+0  00000+0 0  9991
2 41862  55.4756 102.0732 0004781 311.3143  48.6217  1.70474167 59038
GSAT0215 (GALILEO 19)   
1 43055U 17079A   26133.40726625  .00000011  00000+0  00000+0 0  9998
2 43055  55.0834 222.4638 0002332 262.8128  97.2018  1.70474658 52398
GSAT0216 (GALILEO 20)   
1 43056U 17079B   26133.11185616  .00000010  00000+0  00000+0 0  9995
2 43056  55.0844 222.4721 0001854 283.0597  76.9595  1.70474837 52401
GSAT0217 (GALILEO 21)   
1 43057U 17079C   26130.98631227  .00000006  00000+0  00000+0 0  9997
2 43057  55.0824 222.5283 0002398 300.6268  59.3860  1.70474863 52352
GSAT0218 (GALILEO 22)   
1 43058U 17079D   26132.37953886  .00000008  00000+0  00000+0 0  9993
2 43058  55.0821 222.4876 0004926 272.6757  87.3056  1.70474709 52400
GSAT0221 (GALILEO 25)   
1 43564U 18060A   26132.86998564 -.00000058  00000+0  00000+0 0  9998
2 43564  57.1799 342.7343 0003397 316.6731  43.3435  1.70475774 48564
GSAT0222 (GALILEO 26)   
1 43565U 18060B   26131.91641537 -.00000058  00000+0  00000+0 0  9999
2 43565  57.1840 342.7637 0001985 278.6336  81.3865  1.70475510 48597
GSAT0219 (GALILEO 23)   
1 43566U 18060C   26132.72394273 -.00000058  00000+0  00000+0 0  9992
2 43566  57.1830 342.7433 0002967 333.6508  26.3774  1.70475738 48584
GSAT0220 (GALILEO 24)   
1 43567U 18060D   26132.94490484 -.00000058  00000+0  00000+0 0  9998
2 43567  57.1829 342.7382 0003109 325.9586  34.0648  1.70475578 48572
GSAT0223 (GALILEO 27)   
1 49809U 21116A   26133.08767361 -.00000058  00000+0  00000+0 0  9996
2 49809  57.1731 342.6239 0000612 234.7586 303.7075  1.70475762 27585
GSAT0224 (GALILEO 28)   
1 49810U 21116B   26131.13623872 -.00000059  00000+0  00000+0 0  9991
2 49810  57.1741 342.6756 0000328  94.8403  78.6024  1.70475916 27571
GSAT0225 (GALILEO 29)   
1 59598U 24079A   26133.20962640  .00000054  00000+0  00000+0 0  9999
2 59598  55.0975 102.0569 0002420 281.8350  77.2899  1.70474228 12715
GSAT0227 (GALILEO 30)   
1 59600U 24079C   26132.22126720  .00000057  00000+0  00000+0 0  9998
2 59600  55.0936 102.0828 0001530  23.5037 336.4810  1.70474232 12750
GSAT0232 (GALILEO 32)   
1 61182U 24167A   26131.39486815  .00000007  00000+0  00000+0 0  9990
2 61182  55.1957 222.3234 0005260 216.9520 211.3806  1.70474522 10259
GSAT0226 (GALILEO 31)   
1 61183U 24167B   26132.89952956  .00000009  00000+0  00000+0 0  9993
2 61183  55.1940 222.2894 0002181 206.3540 156.7677  1.70474405 10255
